CTC2_L_00029001-01
1 10000U 25531HK  26075.70040509  .00000000  00000+0  00000-0 0  9991
2 10000  85.0000   0.0000 0000000   0.0000   0.0000 15.69614517    12
CTC2_L_00029001-02
1 10001U 22160KF  26075.70040509  .00000000  00000+0  00000-0 0  9997
2 10001  85.0000   0.0000 0000000   0.0000  90.0000 15.69614517    12
CTC2_L_00029001-03
1 10002U 24503ZK  26075.70040509  .00000000  00000+0  00000-0 0  9991
2 10002  85.0000   0.0000 0000000   0.0000 180.0000 15.69614517    13
CTC2_L_00029001-04
1 10003U 26001QC  26075.70040509  .00000000  00000+0  00000-0 0  9997
2 10003  85.0000   0.0000 0000000   0.0000 270.0000 15.69614517    14
CTC2_L_00029002-01
1 10004U 25965OD  26075.70040509  .00000000  00000+0  00000-0 0  9996
2 10004  85.0000  12.0000 0000000   0.0000  12.0000 15.69614517    12
CTC2_L_00029002-02
1 10005U 26527FQ  26075.70040509  .00000000  00000+0  00000-0 0  9992
2 10005  85.0000  12.0000 0000000   0.0000 102.0000 15.69614517    13
CTC2_L_00029002-03
1 10006U 25369I   26075.70040509  .00000000  00000+0  00000-0 0  9996
2 10006  85.0000  12.0000 0000000   0.0000 192.0000 15.69614517    13
CTC2_L_00029002-04
1 10007U 25574XK  26075.70040509  .00000000  00000+0  00000-0 0  9995
2 10007  85.0000  12.0000 0000000   0.0000 282.0000 15.69614517    14
CTC2_L_00029003-01
1 10008U 24594KB  26075.70040509  .00000000  00000+0  00000-0 0  9997
2 10008  85.0000  24.0000 0000000   0.0000  24.0000 15.69614517    12
CTC2_L_00029003-02
1 10009U 22517EF  26075.70040509  .00000000  00000+0  00000-0 0  9991
2 10009  85.0000  24.0000 0000000   0.0000 114.0000 15.69614517    13
CTC2_L_00029003-03
1 10010U 23341HK  26075.70040509  .00000000  00000+0  00000-0 0  9999
2 10010  85.0000  24.0000 0000000   0.0000 204.0000 15.69614517    15
CTC2_L_00029003-04
1 10011U 26954TI  26075.70040509  .00000000  00000+0  00000-0 0  9993
2 10011  85.0000  24.0000 0000000   0.0000 294.0000 15.69614517    15
CTC2_L_00029004-01
1 10012U 26250CV  26075.70040509  .00000000  00000+0  00000-0 0  9993
2 10012  85.0000  36.0000 0000000   0.0000  36.0000 15.69614517    13
CTC2_L_00029004-02
1 10013U 25772LJ  26075.70040509  .00000000  00000+0  00000-0 0  9992
2 10013  85.0000  36.0000 0000000   0.0000 126.0000 15.69614517    14
CTC2_L_00029004-03
1 10014U 24338TP  26075.70040509  .00000000  00000+0  00000-0 0  9990
2 10014  85.0000  36.0000 0000000   0.0000 216.0000 15.69614517    15
CTC2_L_00029004-04
1 10015U 23896DN  26075.70040509  .00000000  00000+0  00000-0 0  9999
2 10015  85.0000  36.0000 0000000   0.0000 306.0000 15.69614517    16
CTC2_L_00029005-01
1 10016U 26047QI  26075.70040509  .00000000  00000+0  00000-0 0  9991
2 10016  85.0000  48.0000 0000000   0.0000  48.0000 15.69614517    13
CTC2_L_00029005-02
1 10017U 22764VI  26075.70040509  .00000000  00000+0  00000-0 0  9994
2 10017  85.0000  48.0000 0000000   0.0000 138.0000 15.69614517    14
CTC2_L_00029005-03
1 10018U 24180NT  26075.70040509  .00000000  00000+0  00000-0 0  9999
2 10018  85.0000  48.0000 0000000   0.0000 228.0000 15.69614517    15
CTC2_L_00029005-04
1 10019U 24008CB  26075.70040509  .00000000  00000+0  00000-0 0  9999
2 10019  85.0000  48.0000 0000000   0.0000 318.0000 15.69614517    16
CTC2_L_00029006-01
1 10020U 22068OE  26075.70040509  .00000000  00000+0  00000-0 0  9995
2 10020  85.0000  60.0000 0000000   0.0000  60.0000 15.69614517    16
CTC2_L_00029006-02
1 10021U 26808HX  26075.70040509  .00000000  00000+0  00000-0 0  9992
2 10021  85.0000  60.0000 0000000   0.0000 150.0000 15.69614517    17
CTC2_L_00029006-03
1 10022U 24256XH  26075.70040509  .00000000  00000+0  00000-0 0  9998
2 10022  85.0000  60.0000 0000000   0.0000 240.0000 15.69614517    18
CTC2_L_00029006-04
1 10023U 22983NZ  26075.70040509  .00000000  00000+0  00000-0 0  9994
2 10023  85.0000  60.0000 0000000   0.0000 330.0000 15.69614517    19
CTC2_L_00029007-01
1 10024U 25295TJ  26075.70040509  .00000000  00000+0  00000-0 0  9994
2 10024  85.0000  72.0000 0000000   0.0000  72.0000 15.69614517    16
CTC2_L_00029007-02
1 10025U 22994WG  26075.70040509  .00000000  00000+0  00000-0 0  9998
2 10025  85.0000  72.0000 0000000   0.0000 162.0000 15.69614517    17
CTC2_L_00029007-03
1 10026U 22114OM  26075.70040509  .00000000  00000+0  00000-0 0  9993
2 10026  85.0000  72.0000 0000000   0.0000 252.0000 15.69614517    18
CTC2_L_00029007-04
1 10027U 26125MQ  26075.70040509  .00000000  00000+0  00000-0 0  9990
2 10027  85.0000  72.0000 0000000   0.0000 342.0000 15.69614517    19
CTC2_L_00029008-01
1 10028U 25016RZ  26075.70040509  .00000000  00000+0  00000-0 0  9999
2 10028  85.0000  84.0000 0000000   0.0000  84.0000 15.69614517    16
CTC2_L_00029008-02
1 10029U 25462FG  26075.70040509  .00000000  00000+0  00000-0 0  9995
2 10029  85.0000  84.0000 0000000   0.0000 174.0000 15.69614517    17
CTC2_L_00029008-03
1 10030U 22866GD  26075.70040509  .00000000  00000+0  00000-0 0  9992
2 10030  85.0000  84.0000 0000000   0.0000 264.0000 15.69614517    19
CTC2_L_00029008-04
1 10031U 25422GQ  26075.70040509  .00000000  00000+0  00000-0 0  9994
2 10031  85.0000  84.0000 0000000   0.0000 354.0000 15.69614517    10
CTC2_L_00029009-01
1 10032U 22149MT  26075.70040509  .00000000  00000+0  00000-0 0  9998
2 10032  85.0000  96.0000 0000000   0.0000  96.0000 15.69614517    17
CTC2_L_00029009-02
1 10033U 23417RI  26075.70040509  .00000000  00000+0  00000-0 0  9998
2 10033  85.0000  96.0000 0000000   0.0000 186.0000 15.69614517    18
CTC2_L_00029009-03
1 10034U 26885RH  26075.70040509  .00000000  00000+0  00000-0 0  9991
2 10034  85.0000  96.0000 0000000   0.0000 276.0000 15.69614517    19
CTC2_L_00029009-04
1 10035U 23923RN  26075.70040509  .00000000  00000+0  00000-0 0  9992
2 10035  85.0000  96.0000 0000000   0.0000   6.0000 15.69614517    11
CTC2_L_00029010-01
1 10036U 23741RV  26075.70040509  .00000000  00000+0  00000-0 0  9991
2 10036  85.0000 108.0000 0000000   0.0000 108.0000 15.69614517    19
CTC2_L_00029010-02
1 10037U 25443PX  26075.70040509  .00000000  00000+0  00000-0 0  9993
2 10037  85.0000 108.0000 0000000   0.0000 198.0000 15.69614517    19
CTC2_L_00029010-03
1 10038U 25729UE  26075.70040509  .00000000  00000+0  00000-0 0  9991
2 10038  85.0000 108.0000 0000000   0.0000 288.0000 15.69614517    10
CTC2_L_00029010-04
1 10039U 23675FO  26075.70040509  .00000000  00000+0  00000-0 0  9990
2 10039  85.0000 108.0000 0000000   0.0000  18.0000 15.69614517    12
CTC2_L_00029011-01
1 10040U 24434BU  26075.70040509  .00000000  00000+0  00000-0 0  9996
2 10040  85.0000 120.0000 0000000   0.0000 120.0000 15.69614517    12
CTC2_L_00029011-02
1 10041U 25149TN  26075.70040509  .00000000  00000+0  00000-0 0  9991
2 10041  85.0000 120.0000 0000000   0.0000 210.0000 15.69614517    13
CTC2_L_00029011-03
1 10042U 22457BU  26075.70040509  .00000000  00000+0  00000-0 0  9991
2 10042  85.0000 120.0000 0000000   0.0000 300.0000 15.69614517    14
CTC2_L_00029011-04
1 10043U 25129AT  26075.70040509  .00000000  00000+0  00000-0 0  9991
2 10043  85.0000 120.0000 0000000   0.0000  30.0000 15.69614517    15
CTC2_L_00029012-01
1 10044U 22755OK  26075.70040509  .00000000  00000+0  00000-0 0  9994
2 10044  85.0000 132.0000 0000000   0.0000 132.0000 15.69614517    12
CTC2_L_00029012-02
1 10045U 23487PG  26075.70040509  .00000000  00000+0  00000-0 0  9998
2 10045  85.0000 132.0000 0000000   0.0000 222.0000 15.69614517    13
CTC2_L_00029012-03
1 10046U 24753PM  26075.70040509  .00000000  00000+0  00000-0 0  9996
2 10046  85.0000 132.0000 0000000   0.0000 312.0000 15.69614517    14
CTC2_L_00029012-04
1 10047U 23814CJ  26075.70040509  .00000000  00000+0  00000-0 0  9994
2 10047  85.0000 132.0000 0000000   0.0000  42.0000 15.69614517    15
CTC2_L_00029013-01
1 10048U 24898PI  26075.70040509  .00000000  00000+0  00000-0 0  9998
2 10048  85.0000 144.0000 0000000   0.0000 144.0000 15.69614517    12
CTC2_L_00029013-02
1 10049U 22050LS  26075.70040509  .00000000  00000+0  00000-0 0  9997
2 10049  85.0000 144.0000 0000000   0.0000 234.0000 15.69614517    13
CTC2_L_00029013-03
1 10050U 24131V   26075.70040509  .00000000  00000+0  00000-0 0  9991
2 10050  85.0000 144.0000 0000000   0.0000 324.0000 15.69614517    15
CTC2_L_00029013-04
1 10051U 23240JO  26075.70040509  .00000000  00000+0  00000-0 0  9992
2 10051  85.0000 144.0000 0000000   0.0000  54.0000 15.69614517    16
CTC2_L_00029014-01
1 10052U 25288RL  26075.70040509  .00000000  00000+0  00000-0 0  9997
2 10052  85.0000 156.0000 0000000   0.0000 156.0000 15.69614517    13
CTC2_L_00029014-02
1 10053U 25694KE  26075.70040509  .00000000  00000+0  00000-0 0  9999
2 10053  85.0000 156.0000 0000000   0.0000 246.0000 15.69614517    14
CTC2_L_00029014-03
1 10054U 25959PO  26075.70040509  .00000000  00000+0  00000-0 0  9994
2 10054  85.0000 156.0000 0000000   0.0000 336.0000 15.69614517    15
CTC2_L_00029014-04
1 10055U 22695FH  26075.70040509  .00000000  00000+0  00000-0 0  9999
2 10055  85.0000 156.0000 0000000   0.0000  66.0000 15.69614517    16
CTC2_L_00029015-01
1 10056U 26893RE  26075.70040509  .00000000  00000+0  00000-0 0  9994
2 10056  85.0000 168.0000 0000000   0.0000 168.0000 15.69614517    13
CTC2_L_00029015-02
1 10057U 23086VI  26075.70040509  .00000000  00000+0  00000-0 0  9996
2 10057  85.0000 168.0000 0000000   0.0000 258.0000 15.69614517    14
CTC2_L_00029015-03
1 10058U 22651YA  26075.70040509  .00000000  00000+0  00000-0 0  9994
2 10058  85.0000 168.0000 0000000   0.0000 348.0000 15.69614517    15
CTC2_L_00029015-04
1 10059U 23915GZ  26075.70040509  .00000000  00000+0  00000-0 0  9999
2 10059  85.0000 168.0000 0000000   0.0000  78.0000 15.69614517    16
CTC2_L_00029016-01
1 10060U 24643XV  26075.70040509  .00000000  00000+0  00000-0 0  9990
2 10060  85.0000 180.0000 0000000   0.0000 180.0000 15.69614517    16
CTC2_L_00029016-02
1 10061U 26096ZC  26075.70040509  .00000000  00000+0  00000-0 0  9995
2 10061  85.0000 180.0000 0000000   0.0000 270.0000 15.69614517    17
